ORBCOMM FM24            
1 25478U 98053D   25212.90428328  .00000936  00000+0  35192-3 0  9999
2 25478  45.0088  57.0598 0002777  90.1807 269.9360 14.38183329403885
ORBCOMM FM25            
1 25479U 98053E   25212.94596429  .00000999  00000+0  37269-3 0  9998
2 25479  45.0078  55.1387 0005042 105.3138 254.8268 14.38154902404183
ORBCOMM FM26            
1 25480U 98053F   25212.91738702  .00000758  00000+0  29963-3 0  9994
2 25480  45.0075  52.0557 0006668 123.4229 236.7258 14.37201579404083
ORBCOMM FM27            
1 25481U 98053G   25213.14109783  .00001029  00000+0  38243-3 0  9995
2 25481  45.0060  54.4000 0001326  95.7119 264.3880 14.38186464404187
ORBCOMM FM28            
1 25482U 98053H   25212.68678101  .00000996  00000+0  37013-3 0  9995
2 25482  45.0071 353.9922 0005716 167.0662 193.0334 14.38364808404938
ORBCOMM FM30            
1 25980U 99065A   25212.34619247  .00000514  00000+0  21769-3 0  9998
2 25980  45.0301 240.6862 0008570 240.1709 119.8287 14.37364838340808
ORBCOMM FM31            
1 25981U 99065B   25212.46036968  .00000539  00000+0  22617-3 0  9995
2 25981  45.0212 233.6238 0006297 262.1779  97.8354 14.37301979340373
ORBCOMM FM32            
1 25982U 99065C   25212.67541810  .00000647  00000+0  26718-3 0  9992
2 25982  45.0145 249.4843 0008626 255.2097 104.7796 14.36349613340992
